start=new Date('2022-11-11T00:00:00.000Z').valueOf();
sats=[{"MEAN_ANOMALY":"311.0557","REF_FRAME":"TEME","PERIOD":"95.439","MEAN_ELEMENT_THEORY":"SGP4","EPOCH":"2022-11-10T20:30:11.919168","TLE_LINE2":"2 52267  53.2159 162.7242 0001830  49.0594 311.0557 15.08822743 30966","INCLINATION":"53.2159","SEMIMAJOR_AXIS":"6917.933","CENTER_NAME":"EARTH","TLE_LINE1":"1 52267U 22041G   22314.85430462 -.00004211  00000-0 -24677-3 0  9994","NORAD_CAT_ID":"52267","EPHEMERIS_TYPE":"0","PERIAPSIS":"538.532","TIME_SYSTEM":"UTC","ELEMENT_SET_NO":"999","DECAY_DATE":null,"RA_OF_ASC_NODE":"162.7242","APOAPSIS":"541.064","ECCENTRICITY":"0.00018300","COUNTRY_CODE":"US","ARG_OF_PERICENTER":"49.0594","MEAN_MOTION":"15.08822743","SITE":"AFETR","RCS_SIZE":"LARGE","LAUNCH_DATE":"2022-04-21","OBJECT_NAME":"STARLINK-3748","OBJECT_ID":"2022-041G","GP_ID":"217372086","MEAN_MOTION_DDOT":"0.0000000000000","MEAN_MOTION_DOT":"-0.00004211","REV_AT_EPOCH":"3096","CLASSIFICATION_TYPE":"U","BSTAR":"-0.00024677000000","OBJECT_TYPE":"PAYLOAD","FILE":"3650843"},{"ARG_OF_PERICENTER":"48.2630","COUNTRY_CODE":"US","ECCENTRICITY":"0.00022940","APOAPSIS":"541.315","MEAN_MOTION":"15.08845816","GP_ID":"217371828","MEAN_MOTION_DOT":"0.00003628","MEAN_MOTION_DDOT":"0.0000000000000","OBJECT_ID":"2022-041H","OBJECT_NAME":"STARLINK-3746","LAUNCH_DATE":"2022-04-21","RCS_SIZE":"LARGE","SITE":"AFETR","FILE":"3650843","OBJECT_TYPE":"PAYLOAD","BSTAR":"0.00024591000000","CLASSIFICATION_TYPE":"U","REV_AT_EPOCH":"3096","REF_FRAME":"TEME","PERIOD":"95.437","MEAN_ELEMENT_THEORY":"SGP4","EPOCH":"2022-11-10T20:14:16.801728","MEAN_ANOMALY":"311.8558","EPHEMERIS_TYPE":"0","TLE_LINE1":"1 52268U 22041H   22314.84325002  .00003628  00000-0  24591-3 0  9991","NORAD_CAT_ID":"52268","CENTER_NAME":"EARTH","SEMIMAJOR_AXIS":"6917.863","INCLINATION":"53.2177","TLE_LINE2":"2 52268  53.2177 162.7878 0002294  48.2630 311.8558 15.08845816 30964","DECAY_DATE":null,"ELEMENT_SET_NO":"999","TIME_SYSTEM":"UTC","PERIAPSIS":"538.141","RA_OF_ASC_NODE":"162.7878"},{"COUNTRY_CODE":"US","ARG_OF_PERICENTER":"42.4866","APOAPSIS":"541.285","ECCENTRICITY":"0.00020680","MEAN_MOTION":"15.08804254","LAUNCH_DATE":"2022-04-21","OBJECT_NAME":"STARLINK-3791","OBJECT_ID":"2022-041J","GP_ID":"217370590","MEAN_MOTION_DDOT":"0.0000000000000","MEAN_MOTION_DOT":"0.00011553","SITE":"AFETR","RCS_SIZE":"LARGE","BSTAR":"0.00074348000000","OBJECT_TYPE":"PAYLOAD","FILE":"3650843","REV_AT_EPOCH":"3096","CLASSIFICATION_TYPE":"U","PERIOD":"95.440","EPOCH":"2022-11-10T20:24:54.267840","MEAN_ELEMENT_THEORY":"SGP4","REF_FRAME":"TEME","MEAN_ANOMALY":"317.6285","CENTER_NAME":"EARTH","SEMIMAJOR_AXIS":"6917.990","INCLINATION":"53.2163","NORAD_CAT_ID":"52269","TLE_LINE1":"1 52269U 22041J   22314.85062810  .00011553  00000-0  74348-3 0  9999","EPHEMERIS_TYPE":"0","TLE_LINE2":"2 52269  53.2163 162.7538 0002068  42.4866 317.6285 15.08804254 30961","DECAY_DATE":null,"PERIAPSIS":"538.424","TIME_SYSTEM":"UTC","ELEMENT_SET_NO":"999","RA_OF_ASC_NODE":"162.7538"},{"FILE":"3650843","OBJECT_TYPE":"PAYLOAD","BSTAR":"-0.00007314700000","CLASSIFICATION_TYPE":"U","REV_AT_EPOCH":"3096","MEAN_MOTION_DOT":"-0.00001452","GP_ID":"217370840","MEAN_MOTION_DDOT":"0.0000000000000","OBJECT_ID":"2022-041K","OBJECT_NAME":"STARLINK-3804","LAUNCH_DATE":"2022-04-21","RCS_SIZE":"LARGE","SITE":"AFETR","MEAN_MOTION":"15.08841124","ARG_OF_PERICENTER":"68.8966","COUNTRY_CODE":"US","ECCENTRICITY":"0.00013610","APOAPSIS":"540.683","RA_OF_ASC_NODE":"162.7962","DECAY_DATE":null,"ELEMENT_SET_NO":"999","TIME_SYSTEM":"UTC","PERIAPSIS":"538.800","EPHEMERIS_TYPE":"0","NORAD_CAT_ID":"52270","TLE_LINE1":"1 52270U 22041K   22314.84052371 -.00001452  00000-0 -73147-4 0  9997","SEMIMAJOR_AXIS":"6917.877","INCLINATION":"53.2175","CENTER_NAME":"EARTH","TLE_LINE2":"2 52270  53.2175 162.7962 0001361  68.8966 291.2172 15.08841124 30964","PERIOD":"95.437","REF_FRAME":"TEME","MEAN_ELEMENT_THEORY":"SGP4","EPOCH":"2022-11-10T20:10:21.248544","MEAN_ANOMALY":"291.2172"},{"SITE":"AFETR","RCS_SIZE":"LARGE","LAUNCH_DATE":"2022-04-21","OBJECT_NAME":"STARLINK-3788","GP_ID":"217371587","MEAN_MOTION_DOT":"0.00001783","MEAN_MOTION_DDOT":"0.0000000000000","OBJECT_ID":"2022-041L","REV_AT_EPOCH":"3096","CLASSIFICATION_TYPE":"U","BSTAR":"0.00013012000000","OBJECT_TYPE":"PAYLOAD","FILE":"3650843","APOAPSIS":"541.244","ECCENTRICITY":"0.00021510","COUNTRY_CODE":"US","ARG_OF_PERICENTER":"40.0107","MEAN_MOTION":"15.08836640","PERIAPSIS":"538.268","TIME_SYSTEM":"UTC","ELEMENT_SET_NO":"999","DECAY_DATE":null,"RA_OF_ASC_NODE":"162.7666","MEAN_ANOMALY":"320.1043","PERIOD":"95.438","MEAN_ELEMENT_THEORY":"SGP4","REF_FRAME":"TEME","EPOCH":"2022-11-10T20:19:34.904928","TLE_LINE2":"2 52271  53.2166 162.7666 0002151  40.0107 320.1043 15.08836640 30969","CENTER_NAME":"EARTH","SEMIMAJOR_AXIS":"6917.891","INCLINATION":"53.2166","TLE_LINE1":"1 52271U 22041L   22314.84693177  .00001783  00000-0  13012-3 0  9992","NORAD_CAT_ID":"52271","EPHEMERIS_TYPE":"0"},{"OBJECT_NAME":"STARLINK-3781","LAUNCH_DATE":"2022-04-21","GP_ID":"217372328","OBJECT_ID":"2022-041M","MEAN_MOTION_DDOT":"0.0000000000000","MEAN_MOTION_DOT":"-0.00000859","SITE":"AFETR","RCS_SIZE":"LARGE","OBJECT_TYPE":"PAYLOAD","BSTAR":"-0.00003588800000","FILE":"3650843","CLASSIFICATION_TYPE":"U","REV_AT_EPOCH":"3096","ARG_OF_PERICENTER":"50.3150","COUNTRY_CODE":"US","ECCENTRICITY":"0.00015510","APOAPSIS":"540.868","MEAN_MOTION":"15.08823888","DECAY_DATE":null,"PERIAPSIS":"538.722","ELEMENT_SET_NO":"999","TIME_SYSTEM":"UTC","RA_OF_ASC_NODE":"162.8135","PERIOD":"95.439","REF_FRAME":"TEME","MEAN_ELEMENT_THEORY":"SGP4","EPOCH":"2022-11-10T20:05:04.039584","MEAN_ANOMALY":"309.7979","TLE_LINE1":"1 52272U 22041M   22314.83685231 -.00000859  00000-0 -35888-4 0  9995","NORAD_CAT_ID":"52272","INCLINATION":"53.2174","SEMIMAJOR_AXIS":"6917.930","CENTER_NAME":"EARTH","EPHEMERIS_TYPE":"0","TLE_LINE2":"2 52272  53.2174 162.8135 0001551  50.3150 309.7979 15.08823888 30967"},{"RA_OF_ASC_NODE":"152.7845","DECAY_DATE":null,"PERIAPSIS":"538.586","ELEMENT_SET_NO":"999","TIME_SYSTEM":"UTC","NORAD_CAT_ID":"52273","TLE_LINE1":"1 52273U 22041N   22314.84144306 -.00008470  00000-0 -51427-3 0  9993","SEMIMAJOR_AXIS":"6917.796","CENTER_NAME":"EARTH","INCLINATION":"53.2177","EPHEMERIS_TYPE":"0","TLE_LINE2":"2 52273  53.2177 152.7845 0001554  53.4302 306.6833 15.08867509 31103","MEAN_ELEMENT_THEORY":"SGP4","PERIOD":"95.436","EPOCH":"2022-11-10T20:11:40.680384","REF_FRAME":"TEME","MEAN_ANOMALY":"306.6833","OBJECT_TYPE":"PAYLOAD","BSTAR":"-0.00051427000000","FILE":"3650843","CLASSIFICATION_TYPE":"U","REV_AT_EPOCH":"3110","OBJECT_NAME":"STARLINK-3782","LAUNCH_DATE":"2022-04-21","OBJECT_ID":"2022-041N","GP_ID":"217371090","MEAN_MOTION_DDOT":"0.0000000000000","MEAN_MOTION_DOT":"-0.00008470","SITE":"AFETR","RCS_SIZE":"LARGE","MEAN_MOTION":"15.08867509","ARG_OF_PERICENTER":"53.4302","COUNTRY_CODE":"US","ECCENTRICITY":"0.00015540","APOAPSIS":"540.736"},{"SITE":"AFETR","RCS_SIZE":"LARGE","LAUNCH_DATE":"2022-04-21","OBJECT_NAME":"STARLINK-3790","MEAN_MOTION_DDOT":"0.0000000000000","GP_ID":"217371340","OBJECT_ID":"2022-041P","MEAN_MOTION_DOT":"0.00000851","REV_AT_EPOCH":"3096","CLASSIFICATION_TYPE":"U","BSTAR":"0.00007159700000","OBJECT_TYPE":"PAYLOAD","FILE":"3650843","APOAPSIS":"540.994","ECCENTRICITY":"0.00017910","COUNTRY_CODE":"US","ARG_OF_PERICENTER":"47.7767","MEAN_MOTION":"15.08836719","PERIAPSIS":"538.516","TIME_SYSTEM":"UTC","ELEMENT_SET_NO":"999","DECAY_DATE":null,"RA_OF_ASC_NODE":"162.8281","MEAN_ANOMALY":"312.3377","PERIOD":"95.438","MEAN_ELEMENT_THEORY":"SGP4","REF_FRAME":"TEME","EPOCH":"2022-11-10T19:58:22.221696","TLE_LINE2":"2 52274  53.2180 162.8281 0001791  47.7767 312.3377 15.08836719 30967","SEMIMAJOR_AXIS":"6917.890","INCLINATION":"53.2180","CENTER_NAME":"EARTH","NORAD_CAT_ID":"52274","TLE_LINE1":"1 52274U 22041P   22314.83220164  .00000851  00000-0  71597-4 0  9994","EPHEMERIS_TYPE":"0"},{"MEAN_ANOMALY":"330.5768","PERIOD":"95.439","MEAN_ELEMENT_THEORY":"SGP4","REF_FRAME":"TEME","EPOCH":"2022-11-10T20:08:59.350848","TLE_LINE2":"2 52275  53.2165 162.7994 0002151  29.5345 330.5768 15.08820518 30968","CENTER_NAME":"EARTH","SEMIMAJOR_AXIS":"6917.940","INCLINATION":"53.2165","NORAD_CAT_ID":"52275","TLE_LINE1":"1 52275U 22041Q   22314.83957582  .00002974  00000-0  20501-3 0  9992","EPHEMERIS_TYPE":"0","PERIAPSIS":"538.317","TIME_SYSTEM":"UTC","ELEMENT_SET_NO":"999","DECAY_DATE":null,"RA_OF_ASC_NODE":"162.7994","APOAPSIS":"541.293","ECCENTRICITY":"0.00021510","COUNTRY_CODE":"US","ARG_OF_PERICENTER":"29.5345","MEAN_MOTION":"15.08820518","SITE":"AFETR","RCS_SIZE":"LARGE","LAUNCH_DATE":"2022-04-21","OBJECT_NAME":"STARLINK-3784","GP_ID":"217372087","MEAN_MOTION_DOT":"0.00002974","MEAN_MOTION_DDOT":"0.0000000000000","OBJECT_ID":"2022-041Q","REV_AT_EPOCH":"3096","CLASSIFICATION_TYPE":"U","BSTAR":"0.00020501000000","OBJECT_TYPE":"PAYLOAD","FILE":"3650843"},{"MEAN_MOTION":"15.08805410","ECCENTRICITY":"0.00018550","APOAPSIS":"541.134","ARG_OF_PERICENTER":"47.3526","COUNTRY_CODE":"US","CLASSIFICATION_TYPE":"U","REV_AT_EPOCH":"3096","FILE":"3650843","OBJECT_TYPE":"PAYLOAD","BSTAR":"0.00041678000000","RCS_SIZE":"LARGE","SITE":"AFETR","MEAN_MOTION_DDOT":"0.0000000000000","GP_ID":"217371829","MEAN_MOTION_DOT":"0.00006345","OBJECT_ID":"2022-041R","OBJECT_NAME":"STARLINK-3778","LAUNCH_DATE":"2022-04-21","TLE_LINE2":"2 52276  53.2161 162.8542 0001855  47.3526 312.7622 15.08805410 30969","EPHEMERIS_TYPE":"0","TLE_LINE1":"1 52276U 22041R   22314.82854032  .00006345  00000-0  41678-3 0  9992","NORAD_CAT_ID":"52276","SEMIMAJOR_AXIS":"6917.986","INCLINATION":"53.2161","CENTER_NAME":"EARTH","MEAN_ANOMALY":"312.7622","PERIOD":"95.440","REF_FRAME":"TEME","MEAN_ELEMENT_THEORY":"SGP4","EPOCH":"2022-11-10T19:53:05.883648","RA_OF_ASC_NODE":"162.8542","ELEMENT_SET_NO":"999","TIME_SYSTEM":"UTC","PERIAPSIS":"538.568","DECAY_DATE":null}];
